{"fetched_at":"2026-03-29T02:12:04Z","count":15717,"tles":[{"name":"STARLINK-35093","line1":"1 65478U 25195W   26087.48877433  .00018913  00000+0  64899-3 0  9999","line2":"2 65478  53.1614 170.7302 0001056  84.7886 275.3235 15.30204010 32856","category":"Starlink"}]}